sat_config_name,tle_name,norad_id,horizons_id,epoch_tle,t_obs,delta_t_min,incl_deg,raan_deg,ecc,argp_deg,M_deg,mean_motion_rev_per_day,x_sgp4,y_sgp4,z_sgp4,vx_sgp4,vy_sgp4,vz_sgp4,x_true,y_true,z_true,vx_true,vy_true,vz_true,err_x,err_y,err_z,err_vx,err_vy,err_vz,err_norm,horizons_ok,line1,line2
CHANDRA,CXO,25867,-151,2025-11-29T09:28:09.054336+00:00,2025-11-30T08:08:09.054336+00:00,1360.0,52.7584,123.0489,0.8164697,310.7158,0.2585,0.37803381,-20940.623314219072,-99877.1147189257,94231.05927107674,0.46191979070741906,-0.7690003218601268,0.03326109597654422,-20944.131339355896,-99875.92896661007,94232.20598552737,0.46115613855669374,-0.7695204195054357,0.033863045800950654,3.508025136823562,-1.1857523156359093,-1.146714450631407,0.0007636521507253247,0.0005200976453089146,-0.0006019498244064364,3.8764936406382486,True,1 25867U 99040B   25333.39454924  .00000722  00000+0  00000+0 0  9995,2 25867  52.7584 123.0489 8164697 310.7158   0.2585  0.37803381 16565
CHANDRA,CXO,25867,-151,2025-11-29T09:28:09.054336+00:00,2025-11-30T08:13:09.054336+00:00,1365.0,52.7584,123.0489,0.8164697,310.7158,0.2585,0.37803381,-20801.96917032002,-100107.20046835663,94240.47071554977,0.46284840457225024,-0.7645441736144011,0.029060175510107113,-20805.645259967234,-100106.11661440771,94241.73424142467,0.4620829109908768,-0.7650647062026316,0.029660877349591712,3.6760896472151217,-1.0838539489195682,-1.2635258748923661,0.0007654935813734554,0.0005205325882304823,-0.0006007018394845985,4.035451909448712,True,1 25867U 99040B   25333.39454924  .00000722  00000+0  00000+0 0  9995,2 25867  52.7584 123.0489 8164697 310.7158   0.2585  0.37803381 16565
CHANDRA,CXO,25867,-151,2025-11-29T09:28:09.054336+00:00,2025-11-30T08:18:09.054336+00:00,1370.0,52.7584,123.0489,0.8164697,310.7158,0.2585,0.37803381,-20663.038023649464,-100335.9495942312,94248.62304053124,0.4637678437004843,-0.7600922698688563,0.02487246486107381,-20666.88250828296,-100334.96821831778,94250.00383308534,0.46300050819124966,-0.7606132413005394,0.025471920292565783,3.8444846334969043,-0.9813759134267457,-1.3807925541041186,0.0007673355092346346,0.0005209714316831704,-0.0005994554314919728,4.2011604180413515,True,1 25867U 99040B   25333.39454924  .00000722  00000+0  00000+0 0  9995,2 25867  52.7584 123.0489 8164697 310.7158   0.2585  0.37803381 16565
CHANDRA,CXO,25867,-151,2025-11-29T09:28:09.054336+00:00,2025-11-30T08:23:09.054336+00:00,1375.0,52.7584,123.0489,0.8164697,310.7158,0.2585,0.37803381,-20523.832616701024,-100563.36335903966,94255.52018965856,0.4646781782466949,-0.7556445296623996,0.020697828643451082,-20527.845863579663,-100562.48497949752,94257.01870153467,0.46390900010369773,-0.7561659450923173,0.02129604039841477,4.01324687863962,-0.8783795421477407,-1.4985118761105696,0.0007691781429971511,0.0005214154299176821,-0.0005982117549636866,4.373012573937874,True,1 25867U 99040B   25333.39454924  .00000722  00000+0  00000+0 0  9995,2 25867  52.7584 123.0489 8164697 310.7158   0.2585  0.37803381 16565
CHANDRA,CXO,25867,-151,2025-11-29T09:28:09.054336+00:00,2025-11-30T08:28:09.054336+00:00,1380.0,52.7584,123.0489,0.8164697,310.7158,0.2585,0.37803381,-20384.355671101403,-100789.44300102428,94261.16606616597,0.46557947724877213,-0.7512008724545304,0.016536133009958313,-20388.538009787746,-100788.66819721827,94262.78275152248,0.46480845604746257,-0.7517227359067407,0.017133102732871514,4.182338686343428,-0.7748038060090039,-1.616685356508242,0.000771021201309563,0.0005218634522102805,-0.0005969697229132008,4.5503790355352915,True,1 25867U 99040B   25333.39454924  .00000722  00000+0  00000+0 0  9995,2 25867  52.7584 123.0489 8164697 310.7158   0.2585  0.37803381 16565
CHANDRA,CXO,25867,-151,2025-11-29T09:28:09.054336+00:00,2025-11-30T08:33:09.054336+00:00,1385.0,52.7584,123.0489,0.8164697,310.7158,0.2585,0.37803381,-20244.609887905783,-101014.18973431208,94265.56453334288,0.4664718086457113,-0.7467612181170281,0.012387245626826766,-20248.961684842314,-101013.51902513189,94267.29984445727,0.4656989437588507,-0.7472835348668972,0.01298297610950046,4.351796936531173,-0.6707091801945353,-1.735311114389333,0.0007728648868606247,0.0005223167498691339,-0.0005957304826736936,4.732789034482995,True,1 25867U 99040B   25333.39454924  .00000722  00000+0  00000+0 0  9995,2 25867  52.7584 123.0489 8164697 310.7158   0.2585  0.37803381 16565
CHANDRA,CXO,25867,-151,2025-11-29T09:28:09.054336+00:00,2025-11-30T08:38:09.054336+00:00,1390.0,52.7584,123.0489,0.8164697,310.7158,0.2585,0.37803381,-20104.59794796064,-101237.60474903036,94268.719414984,0.4673552392944629,-0.7423254869260598,0.008251035649059194,-20109.11955038588,-101237.03868407026,94270.57380468308,0.46658053025536766,-0.7428482617114995,0.008845529154405932,4.521602425240417,-0.5660649601049954,-1.8543896990740905,0.0007747090390952116,0.0005227747854397169,-0.0005944935053467382,4.919764139369975,True,1 25867U 99040B   25333.39454924  .00000722  00000+0  00000+0 0  9995,2 25867  52.7584 123.0489 8164697 310.7158   0.2585  0.37803381 16565
CHANDRA,CXO,25867,-151,2025-11-29T09:28:09.054336+00:00,2025-11-30T08:43:09.054336+00:00,1395.0,52.7584,123.0489,0.8164697,310.7158,0.2585,0.37803381,-19964.32251218983,-101459.68921143404,94270.63449583296,0.46822983498694865,-0.7378935995540391,0.004127373696184575,-19969.014248174233,-101459.22837004923,94272.6084168499,0.46745328148399545,-0.738416836583212,0.004720631970346166,4.691735984404659,-0.46084138481819537,-1.973921016935492,0.0007765535029531923,0.000523237029172896,-0.0005932582741615903,5.110883046051665,True,1 25867U 99040B   25333.39454924  .00000722  00000+0  00000+0 0  9995,2 25867  52.7584 123.0489 8164697 310.7158   0.2585  0.37803381 16565
CHANDRA,CXO,25867,-151,2025-11-29T09:28:09.054336+00:00,2025-11-30T08:48:09.054336+00:00,1400.0,52.7584,123.0489,0.8164697,310.7158,0.2585,0.37803381,-19823.786221945866,-101680.44426401657,94271.31352201819,0.46909566046619566,-0.7334654770618733,1.6131828451802492e-05,-19828.64845662375,-101680.08916627329,94273.407426288,0.46831726199364826,-0.7339891817918345,0.0006081577560598653,4.862234677882952,-0.3550977432751097,-2.093904269815539,0.0007783984725474036,0.0005237047299612163,-0.0005920259276080629,5.305832221361542,True,1 25867U 99040B   25333.39454924  .00000722  00000+0  00000+0 0  9995,2 25867  52.7584 123.0489 8164697 310.7158   0.2585  0.37803381 16565
CHANDRA,CXO,25867,-151,2025-11-29T09:28:09.054336+00:00,2025-11-30T08:53:09.054336+00:00,1405.0,52.7584,123.0489,0.8164697,310.7158,0.2585,0.37803381,-19682.99169929217,-101899.87102563198,94270.76020148143,0.4699527794425791,-0.7290410408910081,-0.004082816476522215,-19688.024759584907,-101899.62225126625,94272.97454092835,0.4691725357673448,-0.7295652176500375,-0.003492021083265039,5.033060292735172,-0.24877436572569422,-2.2143394469167106,0.0007802436752343267,0.0005241767590293822,-0.0005907953932571763,5.504260511778225,True,1 25867U 99040B   25333.39454924  .00000722  00000+0  00000+0 0  9995,2 25867  52.7584 123.0489 8164697 310.7158   0.2585  0.37803381 16565
CHANDRA,CXO,25867,-151,2025-11-29T09:28:09.054336+00:00,2025-11-30T08:58:09.054336+00:00,1410.0,52.7584,123.0489,0.8164697,310.7158,0.2585,0.37803381,-19541.94154734148,-102117.97059160103,94268.97820440041,0.4708012546092824,-0.7246202128558161,-0.008169596346650099,-19547.14579752557,-102117.82866158786,94271.3134308665,0.47001916530898646,-0.7251448672248796,-0.007580028538259279,5.2042501840878685,-0.14193001316743903,-2.335226466093445,0.0007820893002959406,0.0005246543690634597,-0.0005895678083908196,5.705930840376494,True,1 25867U 99040B   25333.39454924  .00000722  00000+0  00000+0 0  9995,2 25867  52.7584 123.0489 8164697 310.7158   0.2585  0.37803381 16565
CHANDRA,CXO,25867,-151,2025-11-29T09:28:09.054336+00:00,2025-11-30T09:03:09.054336+00:00,1415.0,52.7584,123.0489,0.8164697,310.7158,0.2585,0.37803381,-19400.638350530262,-102334.74403382838,94265.97116360346,0.4716411476578375,-0.7202029151357847,-0.012244331537868088,-19406.014116563896,-102334.70952810119,94268.42772831504,0.47085721257842816,-0.7207280515710704,-0.011655989428215136,5.375766033634136,-0.03450572719157208,-2.45656471158145,0.0007839350794093258,0.0005251364352857335,-0.000588342109652952,5.910563532842766,True,1 25867U 99040B   25333.39454924  .00000722  00000+0  00000+0 0  9995,2 25867  52.7584 123.0489 8164697 310.7158   0.2585  0.37803381 16565
CHANDRA,CXO,25867,-151,2025-11-29T09:28:09.054336+00:00,2025-11-30T09:08:09.054336+00:00,1420.0,52.7584,123.0489,0.8164697,310.7158,0.2585,0.37803381,-19259.08467492193,-102550.19240091,94261.7426749781,0.4724725192930962,-0.7157890702679384,-0.016307144456187965,-19264.632320162058,-102550.26584158135,94264.32102979354,0.4716867380969463,-0.7163146944738878,-0.01572002503014085,5.547645240127167,0.07344067134545185,-2.578354815443163,0.000785781196149915,0.000525624205949482,-0.0005871194260471148,6.117979633574488,True,1 25867U 99040B   25333.39454924  .00000722  00000+0  00000+0 0  9995,2 25867  52.7584 123.0489 8164697 310.7158   0.2585  0.37803381 16565
CHANDRA,CXO,25867,-151,2025-11-29T09:28:09.054336+00:00,2025-11-30T09:13:09.054336+00:00,1425.0,52.7584,123.0489,0.8164697,310.7158,0.2585,0.37803381,-19117.28306853079,-102764.31671823344,94256.29629787308,0.47329542924770257,-0.7113786011394374,-0.020358156179350356,-19123.002917851656,-102764.4986857415,94258.99689343222,0.4725078018620252,-0.7119047176981286,-0.019772257477978675,5.71984932086707,0.18196750806237105,-2.7005955591448583,0.0007876273856773919,0.0005261165586911698,-0.0005858987013716808,6.327954235097378,True,1 25867U 99040B   25333.39454924  .00000722  00000+0  00000+0 0  9995,2 25867  52.7584 123.0489 8164697 310.7158   0.2585  0.37803381 16565
